{
    "links": {
        "self": "http://www.neowsapp.com/rest/v1/neo/3843801?api_key=iIulBulltgU6a56xZRHN4H3l9WmuAYTsLGpBGhQ2"
    },
    "id": "3843801",
    "neo_reference_id": "3843801",
    "name": "(2019 RS1)",
    "designation": "2019 RS1",
    "nasa_jpl_url": "http://ssd.jpl.nasa.gov/sbdb.cgi?sstr=3843801",
    "absolute_magnitude_h": 25.5,
    "estimated_diameter": {
        "kilometers": {
            "estimated_diameter_min": 0.0211132445,
            "estimated_diameter_max": 0.0472106499
        },
        "meters": {
            "estimated_diameter_min": 21.113244479,
            "estimated_diameter_max": 47.2106498806
        },
        "miles": {
            "estimated_diameter_min": 0.0131191578,
            "estimated_diameter_max": 0.0293353287
        },
        "feet": {
            "estimated_diameter_min": 69.2691770164,
            "estimated_diameter_max": 154.8905885541
        }
    },
    "is_potentially_hazardous_asteroid": false,
    "close_approach_data": [
        {
            "close_approach_date": "2019-09-04",
            "close_approach_date_full": "2019-Sep-04 09:21",
            "epoch_date_close_approach": 1567588860000,
            "relative_velocity": {
                "kilometers_per_second": "11.2655679644",
                "kilometers_per_hour": "40556.0446718843",
                "miles_per_hour": "25199.9489795939"
            },
            "miss_distance": {
                "astronomical": "0.0813646717",
                "lunar": "31.6508572913",
                "kilometers": "12171981.579569279",
                "miles": "7563318.6377988902"
            },
            "orbiting_body": "Earth"
        }
    ],
    "orbital_data": {
        "orbit_id": "1",
        "orbit_determination_date": "2019-09-07 23:12:03",
        "first_observation_date": "2019-09-05",
        "last_observation_date": "2019-09-07",
        "data_arc_in_days": 2,
        "observations_used": 23,
        "orbit_uncertainty": "8",
        "minimum_orbit_intersection": ".0802777",
        "jupiter_tisserand_invariant": "5.262",
        "epoch_osculation": "2458732.5",
        "eccentricity": ".0838630286612156",
        "semi_major_axis": "1.188474902368331",
        "inclination": "21.91718183259173",
        "ascending_node_longitude": "341.7302055121149",
        "orbital_period": "473.2421832743435",
        "perihelion_distance": "1.08880579756788",
        "perihelion_argument": "1.310781876912531",
        "aphelion_distance": "1.288144007168782",
        "perihelion_time": "2458731.968061313750",
        "mean_anomaly": ".4046510091831493",
        "mean_motion": ".7607098705977023",
        "equinox": "J2000",
        "orbit_class": {
            "orbit_class_type": "AMO",
            "orbit_class_description": "Near-Earth asteroid orbits similar to that of 1221 Amor",
            "orbit_class_range": "1.017 AU < q (perihelion) < 1.3 AU"
        }
    },
    "is_sentry_object": false
}